NORAD_CAT_ID,OBJECT_NAME,OBJECT_TYPE,EPOCH,MEAN_MOTION,ECCENTRICITY,INCLINATION,RA_OF_ASC_NODE,ARG_OF_PERICENTER,MEAN_ANOMALY,BSTAR,MEAN_MOTION_DOT,MEAN_MOTION_DDOT,TLE_LINE0,TLE_LINE1,TLE_LINE2,SEMIMAJOR_AXIS,PERIOD,APOGEE,PERIGEE,DECAYED
55433.0,STARLINK-5570,PAYLOAD,2024-08-01 05:17:36,14.98329671,0.0002786,70.0003,140.5297,269.1448,90.9391,-8.5145e-06,-1.95e-06,0.0,0 STARLINK-5570,1 55433U 23014AU  24214.22055791 -.00000195  00000-0 -85145-5 0  9999,2 55433  70.0003 140.5297 0002786 269.1448  90.9391 14.98329671 83379,6950.194,96.107,573.995,570.123,0.0
55433.0,STARLINK-5570,PAYLOAD,2024-08-01 21:18:55,14.98340327,0.0002757,70.0004,138.8465,269.8717,90.2126,9.736e-05,1.069e-05,0.0,0 STARLINK-5570,1 55433U 23014AU  24214.88814653  .00001069  00000-0  97360-4 0  9991,2 55433  70.0004 138.8465 0002757 269.8717  90.2126 14.98340327 82538,6950.161,96.106,573.942,570.11,0.0
55433.0,STARLINK-5570,PAYLOAD,2024-08-01 22:55:03,14.98340049,0.0002827,70.0002,138.6782,269.4485,90.635,7.781e-05,8.36e-06,0.0,0 STARLINK-5570,1 55433U 23014AU  24214.95490682  .00000836  00000-0  77810-4 0  9990,2 55433  70.0002 138.6782 0002827 269.4485  90.6350 14.98340049 83481,6950.162,96.106,573.992,570.062,0.0
55433.0,STARLINK-5570,PAYLOAD,2024-08-02 11:44:08,14.98336966,0.0002916,70.0001,137.3313,274.2928,85.7898,-5.3572e-05,-7.32e-06,0.0,0 STARLINK-5570,1 55433U 23014AU  24215.48898850 -.00000732  00000-0 -53572-4 0  9994,2 55433  70.0001 137.3313 0002916 274.2928  85.7898 14.98336966 82621,6950.171,96.107,574.063,570.01,0.0
55433.0,STARLINK-5570,PAYLOAD,2024-08-02 21:20:57,14.9832162,0.0002582,70.0008,136.3223,272.6953,87.391,6.66e-05,7.02e-06,0.0,0 STARLINK-5570,1 55433U 23014AU  24215.88955703  .00000702  00000-0  66600-4 0  9990,2 55433  70.0008 136.3223 0002582 272.6953  87.3910 14.98321620 82686,6950.219,96.108,573.878,570.289,0.0
55433.0,STARLINK-5570,PAYLOAD,2024-08-02 22:57:05,14.98319033,0.0002735,70.0017,136.1554,273.43,86.6546,5.5062e-05,5.64e-06,0.0,0 STARLINK-5570,1 55433U 23014AU  24215.95631910  .00000564  00000-0  55062-4 0  9995,2 55433  70.0017 136.1554 0002735 273.4300  86.6546 14.98319033 83634,6950.227,96.108,573.993,570.191,0.0
55433.0,STARLINK-5570,PAYLOAD,2024-08-03 11:46:10,14.98326767,0.0002599,70.001,134.8084,269.3629,90.7233,1.0259e-05,2.9e-07,0.0,0 STARLINK-5570,1 55433U 23014AU  24216.49039711  .00000029  00000-0  10259-4 0  9991,2 55433  70.0010 134.8084 0002599 269.3629  90.7233 14.98326767 83716,6950.203,96.107,573.874,570.262,0.0
55433.0,STARLINK-5570,PAYLOAD,2024-08-03 21:22:58,14.98337791,0.0002651,70.0009,133.7985,266.9681,93.1175,-4.5208e-05,-6.32e-06,0.0,0 STARLINK-5570,1 55433U 23014AU  24216.89095034 -.00000632  00000-0 -45208-4 0  9999,2 55433  70.0009 133.7985 0002651 266.9681  93.1175 14.98337791 82835,6950.169,96.106,573.876,570.191,0.0
55433.0,STARLINK-5570,PAYLOAD,2024-08-03 22:59:06,14.98337072,0.0002652,70.001,133.6304,266.0719,94.0137,-5.0101e-05,-6.91e-06,0.0,0 STARLINK-5570,1 55433U 23014AU  24216.95771065 -.00000691  00000-0 -50101-4 0  9994,2 55433  70.0010 133.6304 0002652 266.0719  94.0137 14.98337072 83780,6950.171,96.107,573.879,570.193,0.0
55433.0,STARLINK-5570,PAYLOAD,2024-08-04 11:48:10,14.98340908,0.0002735,70.0006,132.2831,268.5911,91.4935,-3.894e-05,-5.58e-06,0.0,0 STARLINK-5570,1 55433U 23014AU  24217.49178545 -.00000558  00000-0 -38940-4 0  9997,2 55433  70.0006 132.2831 0002735 268.5911  91.4935 14.98340908 83866,6950.159,96.106,573.925,570.123,0.0
55433.0,STARLINK-5570,PAYLOAD,2024-08-04 23:01:07,14.98329067,0.000269,70.0006,131.1049,268.7503,91.3347,0.00015121,1.712e-05,0.0,0 STARLINK-5570,1 55433U 23014AU  24217.95910925  .00001712  00000-0  15121-3 0  9990,2 55433  70.0006 131.1049 0002690 268.7503  91.3347 14.98329067 83931,6950.196,96.107,573.93,570.191,0.0
55433.0,STARLINK-5570,PAYLOAD,2024-08-05 03:49:30,14.98337764,0.0002645,70.0006,130.5992,266.6091,93.4766,0.00022443,2.586e-05,0.0,0 STARLINK-5570,1 55433U 23014AU  24218.15938181  .00002586  00000-0  22443-3 0  9992,2 55433  70.0006 130.5992 0002645 266.6091  93.4766 14.98337764 83021,6950.169,96.107,573.872,570.196,0.0
55433.0,STARLINK-5570,PAYLOAD,2024-08-05 11:50:11,14.98327758,0.0002421,70.0003,129.7567,277.843,82.2454,3.068e-05,2.73e-06,0.0,0 STARLINK-5570,1 55433U 23014AU  24218.49319343  .00000273  00000-0  30680-4 0  9996,2 55433  70.0003 129.7567 0002421 277.8430  82.2454 14.98327758 83076,6950.2,96.107,573.747,570.382,0.0
55433.0,STARLINK-5570,PAYLOAD,2024-08-05 21:27:01,14.98317893,0.0002556,69.999,128.7434,271.8846,88.202,-2.8616e-05,-4.34e-06,0.0,0 STARLINK-5570,1 55433U 23014AU  24218.89376167 -.00000434  00000-0 -28616-4 0  9994,2 55433  69.9990 128.7434 0002556 271.8846  88.2020 14.98317893 83135,6950.23,96.108,573.872,570.319,0.0
55433.0,STARLINK-5570,PAYLOAD,2024-08-05 23:03:09,14.9831692,0.0002349,70.0018,128.5767,275.3452,84.7439,-2.804e-05,-4.27e-06,0.0,0 STARLINK-5570,1 55433U 23014AU  24218.96052381 -.00000427  00000-0 -28040-4 0  9994,2 55433  70.0018 128.5767 0002349 275.3452  84.7439 14.98316920 84088,6950.233,96.108,573.731,570.466,0.0
55433.0,STARLINK-5570,PAYLOAD,2024-08-06 11:52:14,14.98318915,0.0002788,70.0004,127.2348,269.5511,90.5329,-0.00013088,-1.654e-05,0.0,0 STARLINK-5570,1 55433U 23014AU  24219.49460863 -.00001654  00000-0 -13088-3 0  9999,2 55433  70.0004 127.2348 0002788 269.5511  90.5329 14.98318915 84160,6950.227,96.108,574.03,570.154,0.0
55433.0,STARLINK-5570,PAYLOAD,2024-08-06 19:52:53,14.98325168,0.0003192,70.0011,126.3895,266.9744,93.105,1.777e-05,1.19e-06,0.0,0 STARLINK-5570,1 55433U 23014AU  24219.82840019  .00000119  00000-0  17770-4 0  9997,2 55433  70.0011 126.3895 0003192 266.9744  93.1050 14.98325168 83273,6950.208,96.107,574.291,569.854,0.0
55433.0,STARLINK-5570,PAYLOAD,2024-08-06 21:29:01,14.9832644,0.0003048,70.0002,126.2224,270.0079,90.073,2.9693e-05,2.61e-06,0.0,0 STARLINK-5570,1 55433U 23014AU  24219.89515986  .00000261  00000-0  29693-4 0  9991,2 55433  70.0002 126.2224 0003048 270.0079  90.0730 14.98326440 84226,6950.204,96.107,574.187,569.95,0.0
55433.0,STARLINK-5570,PAYLOAD,2024-08-07 03:53:33,14.98342446,0.0002919,69.9999,125.5492,268.7896,91.2929,0.00012155,1.358e-05,0.0,0 STARLINK-5570,1 55433U 23014AU  24220.16218843  .00001358  00000-0  12155-3 0  9997,2 55433  69.9999 125.5492 0002919 268.7896  91.2929 14.98342446 83321,6950.154,96.106,574.048,569.991,0.0
55433.0,STARLINK-5570,PAYLOAD,2024-08-07 19:54:54,14.98328487,0.0002786,70.0003,123.8658,270.6068,89.4772,0.0003857,4.512e-05,0.0,0 STARLINK-5570,1 55433U 23014AU  24220.82979209  .00004512  00000-0  38570-3 0  9994,2 55433  70.0003 123.8658 0002786 270.6068  89.4772 14.98328487 83425,6950.198,96.107,573.999,570.126,0.0
55433.0,STARLINK-5570,PAYLOAD,2024-08-08 03:55:33,14.98340695,0.000269,70.0007,123.0247,273.0893,86.9958,0.00052703,6.203e-05,0.0,0 STARLINK-5570,1 55433U 23014AU  24221.16358448  .00006203  00000-0  52703-3 0  9991,2 55433  70.0007 123.0247 0002690 273.0893  86.9958 14.98340695 84415,6950.16,96.106,573.894,570.155,0.0
55433.0,STARLINK-5570,PAYLOAD,2024-08-08 19:56:54,14.98338591,0.0002819,70.0005,121.3416,268.6901,91.3936,6.07e-05,6.32e-06,0.0,0 STARLINK-5570,1 55433U 23014AU  24221.83119184  .00000632  00000-0  60700-4 0  9994,2 55433  70.0005 121.3416 0002819 268.6901  91.3936 14.98338591 83579,6950.166,96.106,573.991,570.072,0.0
55433.0,STARLINK-5570,PAYLOAD,2024-08-08 21:33:02,14.98339059,0.0002766,70.0005,121.1734,268.8335,91.2507,6.582e-05,6.93e-06,0.0,0 STARLINK-5570,1 55433U 23014AU  24221.89795117  .00000693  00000-0  65820-4 0  9991,2 55433  70.0005 121.1734 0002766 268.8335  91.2507 14.98339059 84523,6950.165,96.106,573.952,570.107,0.0
55433.0,STARLINK-5570,PAYLOAD,2024-08-09 03:57:34,14.98345328,0.0002684,70.0008,120.5013,256.2046,103.8815,0.00012739,1.428e-05,0.0,0 STARLINK-5570,1 55433U 23014AU  24222.16498426  .00001428  00000-0  12739-3 0  9992,2 55433  70.0008 120.5013 0002684 256.2046 103.8815 14.98345328 83626,6950.145,96.106,573.876,570.145,0.0
55433.0,STARLINK-5570,PAYLOAD,2024-08-09 21:35:03,14.98340077,0.0002666,70.0024,118.6501,241.759,118.33,7.3457e-07,-8.4e-07,0.0,0 STARLINK-5570,1 55433U 23014AU  24222.89934087 -.00000084  00000-0  73457-6 0  9995,2 55433  70.0024 118.6501 0002666 241.7590 118.3300 14.98340077 84679,6950.162,96.106,573.88,570.174,0.0
55433.0,STARLINK-5570,PAYLOAD,2024-08-10 03:59:34,14.98343876,0.0002578,70.003,117.9775,241.0192,119.0709,9.9089e-05,1.09e-05,0.0,0 STARLINK-5570,1 55433U 23014AU  24223.16637665  .00001090  00000-0  99089-4 0  9992,2 55433  70.0030 117.9775 0002578 241.0192 119.0709 14.98343876 83775,6950.15,96.106,573.807,570.223,0.0
55433.0,STARLINK-5570,PAYLOAD,2024-08-10 20:00:55,14.98332434,0.00025,70.0034,116.2952,231.1882,128.9054,8.1027e-05,8.74e-06,0.0,0 STARLINK-5570,1 55433U 23014AU  24223.83398057  .00000874  00000-0  81027-4 0  9997,2 55433  70.0034 116.2952 0002500 231.1882 128.9054 14.98332434 83870,6950.185,96.107,573.788,570.313,0.0
55433.0,STARLINK-5570,PAYLOAD,2024-08-10 21:37:04,14.98331044,0.0002454,70.0025,116.1269,232.2656,127.8281,9.771e-05,1.073e-05,0.0,0 STARLINK-5570,1 55433U 23014AU  24223.90074236  .00001073  00000-0  97710-4 0  9993,2 55433  70.0025 116.1269 0002454 232.2656 127.8281 14.98331044 84821,6950.19,96.107,573.76,570.349,0.0
55433.0,STARLINK-5570,PAYLOAD,2024-08-11 16:50:41,14.98329265,0.0002882,70.0009,114.1055,260.1227,99.9607,-7.6304e-05,-1.003e-05,0.0,0 STARLINK-5570,1 55433U 23014AU  24224.70186763 -.00001003  00000-0 -76304-4 0  9992,2 55433  70.0009 114.1055 0002882 260.1227  99.9607 14.98329265 84006,6950.195,96.107,574.063,570.057,0.0
55433.0,STARLINK-5570,PAYLOAD,2024-08-11 23:15:12,14.98338947,0.000289,70.0001,113.4292,260.7106,99.3726,5.7944e-05,5.99e-06,0.0,0 STARLINK-5570,1 55433U 23014AU  24224.96889900  .00000599  00000-0  57944-4 0  9999,2 55433  70.0001 113.4292 0002890 260.7106  99.3726 14.98338947 84984,6950.165,96.106,574.039,570.022,0.0
